MEAN_MOTION;ECCENTRICITY;INCLINATION;RA_OF_ASC_NODE;ARG_OF_PERICENTER;MEAN_ANOMALY;BSTAR;MEAN_MOTION_DOT;MEAN_MOTION_DDOT;TYPE
1.91595632;0.0003348;53.2076;131.3856;290.5497;34.9317;0;1.0E-7;0;Navigation
1.91595607;0.0003387;53.2081;131.3406;290.6553;135.9574;0;1.7E-7;0;Navigation
1.91595607;0.0003387;53.2081;131.3406;290.6553;135.9574;0;1.7E-7;0;Navigation
1.91595607;0.0003387;53.2081;131.3406;290.6553;135.9574;0;1.7E-7;0;Navigation
1.9159561;0.0003415;53.2089;131.2646;290.7786;82.4095;0;2.8E-7;0;Navigation
1.9159561;0.0003415;53.2089;131.2646;290.7786;82.4095;0;2.8E-7;0;Navigation
1.9159561;0.0003415;53.2089;131.2646;290.7786;82.4095;0;2.8E-7;0;Navigation
1.9159561;0.0003415;53.2089;131.2646;290.7786;82.4095;0;2.8E-7;0;Navigation
1.9159561;0.0003415;53.2089;131.2646;290.7786;82.4095;0;2.8E-7;0;Navigation
1.91595649;0.0003483;53.2102;131.1467;291.1592;72.6874;0;1.4E-7;0;Navigation
1.91595641;0.0003561;53.2104;131.1219;291.4244;164.7117;0;7.0E-8;0;Navigation
1.91595669;0.0003569;53.2109;131.0858;291.426;103.4681;0;-5.0E-8;0;Navigation
1.91595697;0.0003589;53.2113;131.0479;291.456;73.3269;0;-1.5E-7;0;Navigation
1.91595697;0.0003589;53.2113;131.0479;291.456;73.3269;0;-1.5E-7;0;Navigation
1.91595717;0.0003592;53.2116;131.0256;291.4201;120.4369;0;-2.0E-7;0;Navigation
1.91595726;0.0003641;53.2119;130.9999;291.5513;228.4916;0;-2.3E-7;0;Navigation
1.91595732;0.000365;53.212;130.9897;291.5766;55.5601;0;-2.3E-7;0;Navigation
1.91595745;0.0003665;53.2123;130.9687;291.5902;79.1853;0;-2.3E-7;0;Navigation
1.91595771;0.00037;53.2128;130.9235;291.6247;185.4398;0;-1.6E-7;0;Navigation
1.91595788;0.0003728;53.2133;130.8868;291.7471;135.3455;0;-6.0E-8;0;Navigation
1.91595794;0.0003741;53.2135;130.8709;291.818;66.4515;0;-1.0E-8;0;Navigation
1.915958;0.0003753;53.2137;130.8511;291.902;67.844;0;6.0E-8;0;Navigation
1.91595807;0.0003768;53.2141;130.8215;291.981;247.0792;0;1.6E-7;0;Navigation
1.91595807;0.0003768;53.2141;130.8215;291.981;247.0792;0;1.6E-7;0;Navigation
1.91595807;0.0003768;53.2141;130.8215;291.981;247.0792;0;1.6E-7;0;Navigation
1.91595804;0.0003824;53.2152;130.7229;292.409;248.2468;0;4.5E-7;0;Navigation
1.91595799;0.000383;53.2153;130.7131;292.482;66.8434;0;4.7E-7;0;Navigation
1.91595781;0.0003853;53.2159;130.6693;292.6125;146.5841;0;5.2E-7;0;Navigation
1.9159576;0.0003876;53.2163;130.6323;292.8379;102.9431;0;5.4E-7;0;Navigation
1.9159576;0.0003876;53.2163;130.6323;292.8379;102.9431;0;5.4E-7;0;Navigation
1.9159572;0.0003907;53.217;130.575;293.1395;69.9572;0;5.2E-7;0;Navigation
1.9159572;0.0003907;53.217;130.575;293.1395;69.9572;0;5.2E-7;0;Navigation
1.91595672;0.0003944;53.2178;130.5163;293.5706;63.2624;0;4.7E-7;0;Navigation
1.91595642;0.0003967;53.2183;130.4781;293.8486;39.3007;0;4.4E-7;0;Navigation
1.91595642;0.0003967;53.2183;130.4781;293.8486;39.3007;0;4.4E-7;0;Navigation
1.91595642;0.0003967;53.2183;130.4781;293.8486;39.3007;0;4.4E-7;0;Navigation
1.91595642;0.0003967;53.2183;130.4781;293.8486;39.3007;0;4.4E-7;0;Navigation
1.91595562;0.0004048;53.2202;130.3288;294.567;247.0064;0;5.2E-7;0;Navigation
1.91595562;0.0004048;53.2202;130.3288;294.567;247.0064;0;5.2E-7;0;Navigation
1.91595558;0.0004058;53.2207;130.2994;294.6551;62.9386;0;5.7E-7;0;Navigation
1.91595558;0.0004096;53.2213;130.2501;294.9591;243.4005;0;6.4E-7;0;Navigation
1.91595563;0.0004092;53.2218;130.2171;294.8711;124.6931;0;6.6E-7;0;Navigation
1.91595564;0.0004089;53.222;130.2007;294.8324;64.337;0;6.6E-7;0;Navigation
1.91595569;0.0004109;53.2225;130.1633;294.9554;28.5857;0;6.1E-7;0;Navigation
1.91595583;0.0004124;53.223;130.1197;295.0824;103.6653;0;5.1E-7;0;Navigation
1.9159559;0.000413;53.2234;130.0923;295.255;244.2465;0;4.2E-7;0;Navigation
1.91595609;0.0004136;53.2238;130.0528;295.3592;245.409;0;2.9E-7;0;Navigation
1.91595624;0.0004142;53.2242;130.0232;295.3843;65.6598;0;2.0E-7;0;Navigation
1.91595634;0.0004148;53.2245;130.0034;295.4508;66.9548;0;1.5E-7;0;Navigation
1.9159565;0.0004158;53.2249;129.9766;295.5144;195.7622;0;1.1E-7;0;Navigation
1.9159565;0.0004158;53.2249;129.9766;295.5144;195.7622;0;1.1E-7;0;Navigation
1.91595645;0.0004143;53.225;129.9766;295.1617;196.1149;0;1.1E-7;0;Navigation
1.91595692;0.0004167;53.226;129.9048;295.3211;68.6465;0;1.2E-7;0;Navigation
1.91595694;0.0004192;53.226;129.8912;295.7818;317.2599;0;1.5E-7;0;Navigation
1.915957;0.0004193;53.2262;129.8803;295.804;155.3905;0;1.7E-7;0;Navigation
1.915957;0.0004193;53.2262;129.8803;295.804;155.3905;0;1.7E-7;0;Navigation
1.915957;0.0004193;53.2262;129.8803;295.804;155.3905;0;1.7E-7;0;Navigation
1.91595755;0.0004214;53.2275;129.7773;296.1827;239.9042;0;4.9E-7;0;Navigation
1.91595755;0.0004214;53.2275;129.7773;296.1827;239.9042;0;4.9E-7;0;Navigation
1.91595757;0.0004212;53.2277;129.7585;296.216;222.246;0;5.5E-7;0;Navigation
1.9159575;0.0004218;53.2283;129.7183;296.3938;237.4009;0;6.5E-7;0;Navigation
1.91595737;0.0004227;53.2287;129.6883;296.5804;66.0751;0;7.1E-7;0;Navigation
1.91595718;0.0004236;53.2291;129.6506;296.7504;34.3366;0;7.5E-7;0;Navigation
1.91595703;0.000424;53.2294;129.6295;296.8652;61.5336;0;7.6E-7;0;Navigation
1.91595681;0.000425;53.2298;129.6003;297.014;235.9066;0;7.6E-7;0;Navigation
1.91595652;0.0004259;53.2303;129.565;297.2384;161.1479;0;7.4E-7;0;Navigation
1.91595625;0.0004266;53.2307;129.531;297.4938;62.4644;0;7.1E-7;0;Navigation
1.91595625;0.0004266;53.2307;129.531;297.4938;62.4644;0;7.1E-7;0;Navigation
1.9159559;0.000427;53.2311;129.4875;297.8151;137.489;0;6.7E-7;0;Navigation
1.91595584;0.0004276;53.2312;129.4818;297.908;242.8729;0;6.6E-7;0;Navigation
1.91595573;0.0004275;53.2315;129.4661;297.9625;169.888;0;6.4E-7;0;Navigation
1.91595553;0.0004274;53.2319;129.4326;298.224;63.3274;0;6.2E-7;0;Navigation
1.91595535;0.0004277;53.2322;129.4041;298.4196;224.8631;0;6.0E-7;0;Navigation
1.91595526;0.0004266;53.2325;129.3833;298.3053;244.0614;0;6.0E-7;0;Navigation
1.91595504;0.0004265;53.2332;129.334;298.4601;67.3075;0;6.3E-7;0;Navigation
1.91595496;0.0004265;53.2335;129.31;298.4815;145.6889;0;6.6E-7;0;Navigation
1.91595489;0.0004266;53.2337;129.2945;298.5472;69.7663;0;6.8E-7;0;Navigation
1.91595478;0.0004265;53.234;129.2725;298.7128;110.7352;0;7.0E-7;0;Navigation
1.91595469;0.000427;53.2344;129.2472;298.7933;214.1682;0;7.4E-7;0;Navigation
1.91595467;0.0004268;53.2345;129.2355;298.882;67.3143;0;7.5E-7;0;Navigation
1.91595461;0.0004272;53.235;129.1962;299.0491;67.5245;0;7.7E-7;0;Navigation
1.91595461;0.0004272;53.235;129.1962;299.0491;67.5245;0;7.7E-7;0;Navigation
1.9159546;0.0004271;53.2355;129.1574;299.2311;56.8019;0;7.4E-7;0;Navigation
1.91595469;0.0004272;53.2361;129.1081;299.51;237.2881;0;6.4E-7;0;Navigation
1.91595466;0.0004276;53.2361;129.1063;299.6462;270.3029;0;6.3E-7;0;Navigation
1.91595466;0.0004276;53.2361;129.1063;299.6462;270.3029;0;6.3E-7;0;Navigation
1.91595484;0.0004267;53.2367;129.0588;299.9104;57.7087;0;4.7E-7;0;Navigation
1.91595513;0.0004261;53.2373;129.0135;299.9479;165.1228;0;3.0E-7;0;Navigation
1.91595551;0.0004254;53.2379;128.9603;300.0908;59.1173;0;1.5E-7;0;Navigation
1.91595572;0.0004255;53.2382;128.9323;300.0758;209.8123;0;1.1E-7;0;Navigation
1.91595585;0.0004252;53.2385;128.911;300.108;239.8671;0;9.0E-8;0;Navigation
1.915956;0.0004248;53.2388;128.8902;300.0878;261.795;0;1.0E-7;0;Navigation
1.91595617;0.0004246;53.2392;128.8613;300.2561;70.9094;0;1.3E-7;0;Navigation
1.91595637;0.0004233;53.2398;128.8127;300.5039;241.0611;0;2.4E-7;0;Navigation
1.91595642;0.000423;53.24;128.7951;300.5794;202.4154;0;2.9E-7;0;Navigation
1.91595642;0.000423;53.24;128.7951;300.5794;202.4154;0;2.9E-7;0;Navigation
1.91595647;0.0004221;53.2404;128.7635;300.864;61.5137;0;3.9E-7;0;Navigation
1.9159565;0.0004211;53.2407;128.7325;300.9615;268.2132;0;4.7E-7;0;Navigation
1.91595646;0.0004201;53.2411;128.6984;301.1635;171.0389;0;5.5E-7;0;Navigation
1.91595633;0.0004187;53.2416;128.6611;301.4713;134.5385;0;6.1E-7;0;Navigation
1.91595633;0.0004187;53.2416;128.6611;301.4713;134.5385;0;6.1E-7;0;Navigation
1.91595606;0.0004182;53.2422;128.605;301.874;79.7926;0;6.4E-7;0;Navigation
1.91595606;0.0004182;53.2422;128.605;301.874;79.7926;0;6.4E-7;0;Navigation
1.91595581;0.0004172;53.2427;128.5601;302.1139;181.4748;0;6.2E-7;0;Navigation
1.91595564;0.0004183;53.243;128.5362;302.123;258.4233;0;6.0E-7;0;Navigation
1.91595564;0.0004183;53.243;128.5362;302.123;258.4233;0;6.0E-7;0;Navigation
1.91595564;0.0004183;53.243;128.5362;302.123;258.4233;0;6.0E-7;0;Navigation
1.91595487;0.0004153;53.2441;128.4391;302.8848;234.6795;0;4.8E-7;0;Navigation
1.91595487;0.0004153;53.2441;128.4391;302.8848;234.6795;0;4.8E-7;0;Navigation
1.91595453;0.0004134;53.2446;128.3986;303.2451;254.4418;0;4.4E-7;0;Navigation
1.91595447;0.0004129;53.2447;128.3899;303.3351;55.018;0;4.3E-7;0;Navigation
1.91595431;0.0004119;53.2449;128.3684;303.4935;87.572;0;4.2E-7;0;Navigation
1.91595405;0.0004102;53.2454;128.3302;303.8047;64.8326;0;4.2E-7;0;Navigation
1.91595374;0.0004086;53.246;128.2813;304.0413;239.8849;0;4.5E-7;0;Navigation
1.91595366;0.0004085;53.2462;128.2611;304.125;249.054;0;4.8E-7;0;Navigation
1.9159536;0.0004081;53.2464;128.2421;304.2452;236.4641;0;5.0E-7;0;Navigation
1.9159536;0.0004081;53.2464;128.2421;304.2452;236.4641;0;5.0E-7;0;Navigation
1.91595356;0.0004067;53.2469;128.1929;304.4853;57.0209;0;5.3E-7;0;Navigation
1.91595356;0.0004067;53.2469;128.1929;304.4853;57.0209;0;5.3E-7;0;Navigation
1.9159536;0.0004052;53.2475;128.1436;304.8954;237.3596;0;5.2E-7;0;Navigation
1.91595373;0.0004029;53.248;128.0943;305.1237;57.9603;0;4.2E-7;0;Navigation
1.91595372;0.0004031;53.248;128.0845;305.1761;237.7731;0;4.0E-7;0;Navigation
1.9159538;0.0004024;53.2482;128.0666;305.2508;203.9672;0;3.4E-7;0;Navigation
1.91595387;0.0004012;53.2485;128.0451;305.3524;238.5089;0;2.6E-7;0;Navigation
1.91595394;0.0004003;53.2486;128.0295;305.4003;162.9465;0;2.0E-7;0;Navigation
1.91595402;0.0003982;53.2489;128.0015;305.6642;314.5812;0;8.0E-8;0;Navigation
1.91595429;0.0003955;53.2495;127.947;305.8625;231.8156;0;-1.1E-7;0;Navigation
1.91595444;0.0003935;53.2499;127.9148;306.0768;99.5516;0;-1.8E-7;0;Navigation
